[{"OBJECT_NAME":"OBJECT C","OBJECT_ID":"2024-092C","EPOCH":"2026-03-09T23:10:26.961312","MEAN_MOTION":15.27308901,"ECCENTRICITY":0.00097974,"INCLINATION":97.6475,"RA_OF_ASC_NODE":197.1606,"ARG_OF_PERICENTER":169.1353,"MEAN_ANOMALY":191.0098,"EPHEMERIS_TYPE":0,"CLASSIFICATION_TYPE":"U","NORAD_CAT_ID":59775,"ELEMENT_SET_NO":999,"REV_AT_EPOCH":10042,"BSTAR":0.00057925748,"MEAN_MOTION_DOT":0.00015454,"MEAN_MOTION_DDOT":0},{"OBJECT_NAME":"STARLINK-32394","OBJECT_ID":"2024-202J","EPOCH":"2026-03-09T12:17:11.097600","MEAN_MOTION":15.27570555,"ECCENTRICITY":0.00023213,"INCLINATION":43.0064,"RA_OF_ASC_NODE":238.7215,"ARG_OF_PERICENTER":285.2076,"MEAN_ANOMALY":74.8519,"EPHEMERIS_TYPE":0,"CLASSIFICATION_TYPE":"U","NORAD_CAT_ID":61853,"ELEMENT_SET_NO":999,"REV_AT_EPOCH":7530,"BSTAR":-1.0569453e-5,"MEAN_MOTION_DOT":-5.53e-6,"MEAN_MOTION_DDOT":0}]
